ONEWEB-0264             
1 48982U 21060R   24031.45101713 -.00000130  00000+0 -37465-3 0  9995
2 48982  87.9045  41.4839 0001909  91.4245 268.7104 13.16593823125411
ONEWEB-0266             
1 48984U 21060T   24031.47239161  .00000097  00000+0  21916-3 0  9992
2 48984  87.9041  41.4610 0001753  90.5216 269.6115 13.16593361125409
ONEWEB-0267             
1 48985U 21060U   24031.78747446  .00000015  00000+0  60501-5 0  9992
2 48985  87.9043  41.3992 0002969  77.1033 283.0430 13.16592131125451
ONEWEB-0268             
1 48986U 21060V   24031.45182138  .00000036  00000+0  60766-4 0  9993
2 48986  87.9042  41.4723 0001945  96.1110 264.0242 13.16593888125678
ONEWEB-0269             
1 48987U 21060W   24031.50881074 -.00000034  00000+0 -12283-3 0  9995
2 48987  87.9047  41.4817 0001797  92.7872 267.3465 13.16595557125454
ONEWEB-0270             
1 48988U 21060X   24031.45024548  .00000040  00000+0  71744-4 0  9998
2 48988  87.9039  41.4825 0002412  83.1879 276.9526 13.16594984125481
ONEWEB-0271             
1 48989U 21060Y   24031.51355175 -.00000325  00000+0 -88410-3 0  9994
2 48989  87.9042  41.4441 0002253  89.9800 270.1589 13.16594680125490
ONEWEB-0272             
1 48990U 21060Z   24031.45972221 -.00000154  00000+0 -43711-3 0  9991
2 48990  87.9041  41.4824 0002132  92.4898 267.6477 13.16593747125432
